{
    "links": {
        "self": "http://www.neowsapp.com/rest/v1/neo/3445628?api_key=iIulBulltgU6a56xZRHN4H3l9WmuAYTsLGpBGhQ2"
    },
    "id": "3445628",
    "neo_reference_id": "3445628",
    "name": "(2009 CZ1)",
    "designation": "2009 CZ1",
    "nasa_jpl_url": "http://ssd.jpl.nasa.gov/sbdb.cgi?sstr=3445628",
    "absolute_magnitude_h": 24.5,
    "estimated_diameter": {
        "kilometers": {
            "estimated_diameter_min": 0.0334622374,
            "estimated_diameter_max": 0.0748238376
        },
        "meters": {
            "estimated_diameter_min": 33.4622374455,
            "estimated_diameter_max": 74.8238376074
        },
        "miles": {
            "estimated_diameter_min": 0.0207924639,
            "estimated_diameter_max": 0.0464933628
        },
        "feet": {
            "estimated_diameter_min": 109.7842471007,
            "estimated_diameter_max": 245.4850393757
        }
    },
    "is_potentially_hazardous_asteroid": false,
    "close_approach_data": [
        {
            "close_approach_date": "2009-02-17",
            "close_approach_date_full": "2009-Feb-17 02:29",
            "epoch_date_close_approach": 1234837740000,
            "relative_velocity": {
                "kilometers_per_second": "18.0869484703",
                "kilometers_per_hour": "65113.0144931624",
                "miles_per_hour": "40458.6950332653"
            },
            "miss_distance": {
                "astronomical": "0.048938535",
                "lunar": "19.037090115",
                "kilometers": "7321100.59692045",
                "miles": "4549120.96538421"
            },
            "orbiting_body": "Earth"
        }
    ],
    "orbital_data": {
        "orbit_id": "7",
        "orbit_determination_date": "2017-04-06 09:01:24",
        "first_observation_date": "2009-02-03",
        "last_observation_date": "2009-02-05",
        "data_arc_in_days": 2,
        "observations_used": 22,
        "orbit_uncertainty": "9",
        "minimum_orbit_intersection": ".00121422",
        "jupiter_tisserand_invariant": "3.299",
        "epoch_osculation": "2454866.5",
        "eccentricity": ".6599743846042031",
        "semi_major_axis": "2.251474410955913",
        "inclination": "2.200109522210532",
        "ascending_node_longitude": "150.3613024680763",
        "orbital_period": "1233.953942574934",
        "perihelion_distance": ".7655589721331737",
        "perihelion_argument": "66.22753240412868",
        "aphelion_distance": "3.737389849778653",
        "perihelion_time": "2454921.191485506592",
        "mean_anomaly": "344.0440278173693",
        "mean_motion": ".2917450867321481",
        "equinox": "J2000",
        "orbit_class": {
            "orbit_class_type": "APO",
            "orbit_class_description": "Near-Earth asteroid orbits which cross the Earth’s orbit similar to that of 1862 Apollo",
            "orbit_class_range": "a (semi-major axis) > 1.0 AU; q (perihelion) < 1.017 AU"
        }
    },
    "is_sentry_object": false
}